STARLINK-1391           
1 45750U 20038W   24040.22912915  .00001346  00000+0  10921-3 0  9994
2 45750  53.0565  25.9660 0001498  94.6102 265.5058 15.06418249202015
STARLINK-1464           
1 45751U 20038X   24040.22544590  .00002165  00000+0  16416-3 0  9990
2 45751  53.0551  25.9856 0001498  94.6732 265.4428 15.06411582202010
STARLINK-1476           
1 45753U 20038Z   24040.23650508  .00005721  00000+0  40241-3 0  9994
2 45753  53.0559  25.9368 0001748 100.6632 259.4554 15.06420419202015
STARLINK-1477           
1 45754U 20038AA  24040.37288562  .00007205  00000+0  50184-3 0  9993
2 45754  53.0556  25.3237 0001768 105.7169 254.4015 15.06417322202033
STARLINK-1478           
1 45755U 20038AB  24040.19227608  .00006015  00000+0  42223-3 0  9991
2 45755  53.0553  26.1363 0001541  96.2758 263.8407 15.06412021201991
STARLINK-1484           
1 45756U 20038AC  24040.23657712  .00017180  00000+0  11180-2 0  9992
2 45756  53.0543  25.7397 0002270  70.9180 289.2055 15.08067297202008
STARLINK-1486           
1 45757U 20038AD  24040.11311989  .00016170  00000+0  64847-3 0  9990
2 45757  53.0797 356.3644 0005984 104.8861 255.2800 15.25153139202412
STARLINK-1487           
1 45758U 20038AE  24040.28117367  .00022162  00000+0  88129-3 0  9990
2 45758  53.0398 352.9860 0004966 147.0848 213.0459 15.25224767202479
STARLINK-1493           
1 45759U 20038AF  24040.18121995  .00006424  00000+0  44956-3 0  9995
2 45759  53.0545  26.1844 0001496  91.4999 268.6161 15.06415839201993
STARLINK-1494           
1 45760U 20038AG  24040.38395103 -.00000609  00000+0 -21992-4 0  9990
2 45760  53.0563  25.2763 0001693  96.7502 263.3680 15.06403592202039
STARLINK-1499           
1 45762U 20038AJ  24040.09330271  .00019972  00000+0  75284-3 0  9998
2 45762  53.0130 336.9997 0001469 129.9990 230.1137 15.27077980202695
STARLINK-1502           
1 45764U 20038AL  24040.47978067  .00007559  00000+0  52560-3 0  9993
2 45764  53.0553  24.8410 0001693  92.3649 267.7534 15.06413540202052
STARLINK-1509           
1 45766U 20038AN  24040.22005299  .00024668  00000+0  74847-3 0  9998
2 45766  53.0483 336.9223 0003325 117.9030 242.2308 15.33984010202699
STARLINK-1511           
1 45767U 20038AP  24040.26230999  .00002102  00000+0  15993-3 0  9996
2 45767  53.0557  25.8184 0001549  93.8664 266.2502 15.06406389202008
STARLINK-1521           
1 45768U 20038AQ  24040.58334491  .00209782  00000+0  10302-2 0  9995
2 45768  53.0488 336.4678 0007612 126.3945 290.3231 15.81058947  6007
STARLINK-1459           
1 45769U 20038AR  24040.40328165  .00004677  00000+0  33262-3 0  9995
2 45769  53.0538  45.2129 0001394  98.3406 261.7741 15.06404849201751
STARLINK-1462           
1 45770U 20038AS  24040.13788555  .00014199  00000+0  96962-3 0  9996
2 45770  53.0549   6.3791 0001522  99.6935 260.4226 15.06421538202267
STARLINK-1463           
1 45771U 20038AT  24040.13145605 -.00003545  00000+0 -21922-3 0  9999
2 45771  53.0550   6.4059 0001553  90.8837 269.2330 15.06401546202266
STARLINK-1470           
1 45772U 20038AU  24040.18675508  .00011859  00000+0  81342-3 0  9992
2 45772  53.0562   6.1619 0001631 102.2757 257.8414 15.06411266202283
STARLINK-1482           
1 45773U 20038AV  24040.17937611  .00016321  00000+0  11114-2 0  9996
2 45773  53.0560   6.1961 0001656  99.6835 260.4341 15.06421971202288
STARLINK-1485           
1 45774U 20038AW  24040.28258778  .00017954  00000+0  12206-2 0  9995
2 45774  53.0544   5.7291 0001641  95.5673 264.5503 15.06416854202291
STARLINK-1488           
1 45775U 20038AX  24040.21076555  .00019660  00000+0  69393-3 0  9996
2 45775  53.0716 327.7456 0007573  85.8935 274.2930 15.29235356202840
STARLINK-1489           
1 45776U 20038AY  24040.16092682  .00020622  00000+0  13974-2 0  9993
2 45776  53.0543   6.2718 0001462  95.7419 264.3737 15.06450642202282
STARLINK-1490           
1 45777U 20038AZ  24040.15956951  .00015113  00000+0  66034-3 0  9996
2 45777  53.0435 342.5370 0003650 124.2030 235.9312 15.22309713202622
STARLINK-1491           
1 45778U 20038BA  24040.13883465  .00008804  00000+0  60872-3 0  9997
2 45778  53.0556   6.3745 0001583  90.2092 269.9079 15.06428602202269
STARLINK-1492           
1 45779U 20038BB  24040.20277775  .00018474  00000+0  65318-3 0  9991
2 45779  53.0266 319.5080 0002931 127.5892 232.5373 15.29239204202939
STARLINK-1496           
1 45780U 20038BC  24040.27889729  .00001288  00000+0  10534-3 0  9993
2 45780  53.0559   5.7462 0001505  93.5805 266.5356 15.06408507202281
STARLINK-1497           
1 45781U 20038BD  24040.17200176  .00003067  00000+0  22461-3 0  9995
2 45781  53.0573   6.2236 0001653 107.5052 252.6117 15.06417606202277
STARLINK-1498           
1 45782U 20038BE  24040.19278670  .00018341  00000+0  66740-3 0  9991
2 45782  53.0491 319.5224 0007395 108.6550 251.5252 15.28284709202951
STARLINK-1505           
1 45783U 20038BF  24040.16832424  .00019731  00000+0  13390-2 0  9998
2 45783  53.0543   6.2398 0001616  84.2700 275.8473 15.06422528202287
STARLINK-1510           
1 45784U 20038BG  24040.27520642  .00016626  00000+0  11316-2 0  9993
2 45784  53.0556   5.7637 0001575 101.0263 259.0903 15.06427489202292
STARLINK-1512           
1 45785U 20038BH  24040.19043395  .00019123  00000+0  12983-2 0  9996
2 45785  53.0553   6.1424 0001595  97.7559 262.3611 15.06425999202286
STARLINK-1513           
1 45786U 20038BJ  24040.17569196  .00019442  00000+0  13196-2 0  9998
2 45786  53.0551   6.2138 0001573 101.4598 258.6568 15.06425902202283
STARLINK-1517           
1 45787U 20038BK  24040.11671819  .00004494  00000+0  32032-3 0  9991
2 45787  53.0581   6.4748 0001834 105.4359 254.6832 15.06409901202275
STARLINK-1522           
1 46027U 20055A   24040.02365585  .00016466  00000+0  11213-2 0  9997
2 46027  53.0552 296.8931 0001759 109.5896 250.5282 15.06413740194389
STARLINK-1523           
1 46028U 20055B   24039.97205908  .00018341  00000+0  12470-2 0  9992
2 46028  53.0538 297.1276 0001222  92.4353 267.6776 15.06398906194397
STARLINK-1526           
1 46029U 20055C   24040.03103476  .00017216  00000+0  11718-2 0  9993
2 46029  53.0546 296.8589 0001477  91.0387 269.0772 15.06402227194398
STARLINK-1534           
1 46030U 20055D   24039.98310320  .00019244  00000+0  13066-2 0  9996
2 46030  53.0544 297.0763 0001420  92.0466 268.0686 15.06418832194349
STARLINK-1544           
1 46031U 20055E   24040.03436687  .00013802  00000+0  98534-3 0  9998
2 46031  53.0545 297.3424 0001695  97.5504 262.5676 15.04782820194375
STARLINK-1555           
1 46032U 20055F   24040.08263599  .00017124  00000+0  11656-2 0  9994
2 46032  53.0541 296.6271 0001330  86.6177 273.4964 15.06403752194406
STARLINK-1556           
1 46033U 20055G   24040.13054625  .00012109  00000+0  83012-3 0  9993
2 46033  53.0559 296.4132 0001611 125.4011 234.7128 15.06413900194386
STARLINK-1557           
1 46034U 20055H   24039.93519910  .00011802  00000+0  80982-3 0  9995
2 46034  53.0550 297.2920 0001296  91.7787 268.3350 15.06402831193869
STARLINK-1558           
1 46035U 20055J   24040.07525950  .00014804  00000+0  10103-2 0  9996
2 46035  53.0545 296.6587 0001363  92.0813 268.0332 15.06412142194409
STARLINK-1560           
1 46036U 20055K   24040.12686578  .00015526  00000+0  10587-2 0  9995
2 46036  53.0556 296.4271 0001339  94.8764 265.2378 15.06407990194413
STARLINK-1565           
1 46037U 20055L   24040.12317444  .00017258  00000+0  11741-2 0  9996
2 46037  53.0560 296.4472 0001405 114.1656 245.9480 15.06416295194408
STARLINK-1567           
1 46038U 20055M   24039.93888251  .00012469  00000+0  85435-3 0  9994
2 46038  53.0547 297.2757 0001073  85.1646 274.9465 15.06405748194378
STARLINK-1569           
1 46039U 20055N   24040.07894889  .00017195  00000+0  11702-2 0  9992
2 46039  53.0549 296.6435 0001263  85.4008 274.7125 15.06406856194397
STARLINK-1576           
1 46040U 20055P   24040.10843567  .00019390  00000+0  13167-2 0  9991
2 46040  53.0543 296.5122 0001557  87.6026 272.5141 15.06408725194363
STARLINK-1580           
1 46041U 20055Q   24040.11950660  .00019783  00000+0  13427-2 0  9991
2 46041  53.0548 296.5514 0001184  83.1819 276.9304 15.06415011194377
STARLINK-1581           
1 46042U 20055R   24040.02734366  .00016545  00000+0  11266-2 0  9997
2 46042  53.0538 296.8782 0001306 104.6982 255.4151 15.06413821194350
STARLINK-1582           
1 46043U 20055S   24040.15267019  .00009181  00000+0  63445-3 0  9993
2 46043  53.0539 296.3112 0001310  90.6956 269.4183 15.06397899194406
STARLINK-1584           
1 46044U 20055T   24040.03377367  .00018717  00000+0  12720-2 0  9993
2 46044  53.0542 296.8397 0001425  91.8068 268.3084 15.06401866194391
STARLINK-1591           
1 46045U 20055U   24040.11212312  .00019924  00000+0  13522-2 0  9993
2 46045  53.0538 296.4930 0001401  92.2073 267.9076 15.06412404194386
STARLINK-1524           
1 46047U 20055W   24040.06512909  .00014461  00000+0  98768-3 0  9991
2 46047  53.0538 286.7067 0001383  92.9284 267.1863 15.06402214194532
STARLINK-1527           
1 46048U 20055X   24040.06144408  .00013942  00000+0  95303-3 0  9992
2 46048  53.0538 286.7263 0001351  95.3836 264.7307 15.06399772194514
STARLINK-1530           
1 46049U 20055Y   24040.05775555  .00014416  00000+0  98463-3 0  9992
2 46049  53.0538 286.7415 0001415  92.5485 267.5666 15.06402229194548
STARLINK-1540           
1 46051U 20055AA  24039.96192149  .00012717  00000+0  87097-3 0  9998
2 46051  53.0542 287.1668 0001476 111.2470 248.8677 15.06404645194538
STARLINK-1541           
1 46052U 20055AB  24040.07986815  .00016121  00000+0  10984-2 0  9997
2 46052  53.0535 286.6383 0001208  89.3901 270.7227 15.06408683194515
STARLINK-1543           
1 46053U 20055AC  24040.08355129  .00013849  00000+0  94636-3 0  9998
2 46053  53.0525 286.6194 0001084 105.9878 254.1231 15.06417673194548
